STARLINK-30495          
1 57968U 23151E   26068.14863451  .00001291  00000+0  57761-4 0  9993
2 57968  43.0042 339.0612 0001337 263.7152  96.3547 15.26761318135681
FLOCK 4G-10             
1 62670U 25009BP  26068.70827885  .00013952  00000+0  52624-3 0  9995
2 62670  97.3967 150.5883 0003469 341.4844  18.6269 15.27155944121340
